INTELSAT 26 (IS-26)     
1 24732U 97007A   19085.47665997  .00000002  00000-0  00000+0 0  9998
2 24732   8.4103  45.6939 0005363 344.3157  27.3798  1.00271953 80817
GALAXY 25 (G-25)        
1 24812U 97026A   19085.44569122 -.00000183  00000-0  00000+0 0  9999
2 24812   0.8884  93.8490 0003422 274.1993 242.8913  1.00271810 79887
INTELSAT 5 (IS-5)       
1 24916U 97046A   19085.14976392  .00000073  00000-0  00000+0 0  9991
2 24916   4.8106  67.9131 0003850 305.4790  86.8266  1.00270680 79145
INTELSAT 805 (IS-805)   
1 25371U 98037A   19085.42623762 -.00000051  00000-0  00000+0 0  9996
2 25371   1.4232  91.1569 0003656 289.7434 125.2072  1.00270387 76099
GALAXY 11 (G-11)        
1 26038U 99071A   19085.39806397  .00000111  00000-0  00000+0 0  9995
2 26038   0.1779 107.2679 0004471 292.0517 316.4505  1.00028882 70605
INTELSAT 9 (IS-9)       
1 26451U 00043A   19085.11853347 -.00000026  00000-0  00000+0 0  9998
2 26451   4.7987  68.1188 0003711 309.0933 274.8608  1.00271396 68374
INTELSAT 12 (IS-12)     
1 26590U 00068A   19085.53521705 -.00000007  00000-0  00000+0 0  9994
2 26590   1.8926  88.6613 0002141 278.3881  73.5537  1.00273980 67336
INTELSAT 1R (IS-1R)     
1 26608U 00072A   19085.78277071 -.00000157  00000-0  00000+0 0  9996
2 26608   1.6920  89.2676 0000502 199.2452 334.2958  1.00272537 67182
INTELSAT 10 (IS-10)     
1 26766U 01019A   19085.14230660  .00000105  00000-0  00000+0 0  9998
2 26766   2.8955  81.8051 0000951 311.0107 249.2078  1.00275322 65453
INTELSAT 901 (IS-901)   
1 26824U 01024A   19085.17619007 -.00000234  00000-0  00000+0 0  9992
2 26824   0.8694  93.6687 0003125 283.8230 199.7394  1.00271368 65121
INTELSAT 902 (IS-902)   
1 26900U 01039A   19085.18945626  .00000012  00000-0  00000+0 0  9996
2 26900   0.0029 192.4746 0002933 176.6847 304.3792  1.00273128 64292
DIRECTV 4S              
1 26985U 01052A   19085.48843078 -.00000134  00000-0  00000+0 0  9991
2 26985   0.0178 192.0654 0002782 178.0882 248.1112  1.00271839 63524
INTELSAT 904 (IS-904)   
1 27380U 02007A   19085.21409334  .00000134  00000-0  00000+0 0  9995
2 27380   0.4182  98.3786 0001997 246.1649 311.6600  1.00171094 62611
INTELSAT 903 (IS-903)   
1 27403U 02016A   19085.81696718 -.00000244  00000-0  00000+0 0  9994
2 27403   1.2557  92.2124 0002730 321.8157  32.5310  1.00272261 62189
DIRECTV 5 (TEMPO 1)     
1 27426U 02023A   19085.15517255 -.00000077  00000-0  00000+0 0  9996
2 27426   0.0182 205.9505 0003351 161.3817 121.7019  1.00272208 61841
INTELSAT 905 (IS-905)   
1 27438U 02027A   19085.86098376 -.00000205  00000-0  00000+0 0  9992
2 27438   0.2400 100.6930 0002940 277.5498  91.1914  1.00271173 61495
GALAXY 3C (G-3C)        
1 27445U 02030A   19085.48978803 -.00000172  00000-0  00000+0 0  9997
2 27445   0.0095 259.6867 0000686 104.9483 260.2585  1.00272111 61482
INTELSAT 906 (IS-906)   
1 27513U 02041A   19085.18989244 -.00000006  00000-0  00000+0 0  9999
2 27513   0.0268 235.9565 0002394 148.9029 290.9901  1.00272503 60491
INTELSAT 907 (IS-907)   
1 27683U 03007A   19085.86083385 -.00000223  00000-0  00000+0 0  9997
2 27683   0.0224 218.8367 0002627 158.4743  89.0693  1.00270803 58920
GALAXY 12 (G-12)        
1 27715U 03013B   19085.15142140  .00000038  00000-0  00000+0 0  9990
2 27715   0.4552  96.1394 0002159 289.2037  83.4556  1.00273449 58532
GALAXY 23 (G-23)        
1 27854U 03034A   19085.49714906 -.00000007  00000-0  00000+0 0  9996
2 27854   0.0183 132.3958 0002868 239.0518 230.1597  1.00270297 62073
GALAXY 13 (HORIZONS 1)  
1 27954U 03044A   19084.63125473  .00000027  00000-0  00000-0 0  9990
2 27954   0.0239 137.1567 0000962 235.7086 270.1553  1.00271618 20103
DIRECTV 7S              
1 28238U 04016A   19084.88935663 -.00000020  00000-0  00000+0 0  9996
2 28238   0.0413 283.4033 0003165  92.8492   7.8746  1.00272994 54583
INTELSAT 10-02          
1 28358U 04022A   19085.14556122 -.00000032  00000-0  00000+0 0  9998
2 28358   0.0119 209.9236 0003117 171.0364 213.7284  1.00272453 54150
XM-3 (RHYTHM)           
1 28626U 05008A   19085.59059005 -.00000226  00000-0  00000+0 0  9993
2 28626   0.0389  14.3889 0000255  11.9405 284.8957  1.00270874 51593
SPACEWAY 1              
1 28644U 05015A   19085.44702615  .00000083  00000-0  00000+0 0  9997
2 28644   0.1130  97.7734 0000612 341.4866 126.3315  1.00272162 51041
DIRECTV 8               
1 28659U 05019A   19085.21307012 -.00000137  00000-0  00000+0 0  9995
2 28659   0.0140 242.7630 0003078 129.1078 147.4177  1.00271936 50710
GALAXY 28 (G-28)        
1 28702U 05022A   19085.59006663 -.00000206  00000-0  00000+0 0  9994
2 28702   0.0258 148.2482 0002140 301.3620 217.5634  1.00269266 50350
GALAXY 14 (G-14)        
1 28790U 05030A   19085.43590889  .00000016  00000-0  00000+0 0  9999
2 28790   0.0165 156.9257 0002616 220.2657 198.3187  1.00269720 49832
GALAXY 15 (G-15)        
1 28884U 05041A   19085.44146615  .00000058  00000-0  00000+0 0  9996
2 28884   0.0150 145.4974 0001763 223.5897 200.4302  1.00273535 49151
SPACEWAY 2              
1 28903U 05046B   19085.65976811 -.00000147  00000-0  00000+0 0  9995
2 28903   0.0235   8.7611 0000246 129.9696 183.5086  1.00271780 49023
GALAXY 16 (G-16)        
1 29236U 06023A   19085.22131226 -.00000148  00000-0  00000+0 0  9998
2 29236   0.0183 130.0477 0002856 247.0421 146.9261  1.00270969 46798
DIRECTV 9S              
1 29494U 06043A   19085.21307067 -.00000135  00000-0  00000+0 0  9999
2 29494   0.0135 197.0517 0003065 170.9663 150.9397  1.00272176 45633
XM-4 (BLUES)            
1 29520U 06049A   19085.15412572 -.00000044  00000-0  00000+0 0  9995
2 29520   0.0178   6.0226 0000573  94.8064  22.6650  1.00272093 45529
GALAXY 17 (G-17)        
1 31307U 07016B   19084.87183035 -.00000195  00000-0  00000-0 0  9991
2 31307   0.0152 130.5875 0003513 249.4693  25.8197  1.00270417 43474
DIRECTV 10              
1 31862U 07032A   19085.48995137 -.00000124  00000-0  00000+0 0  9998
2 31862   0.0412   6.1051 0000246  68.5608 182.4857  1.00272649 42931
SPACEWAY 3              
1 32018U 07036A   19085.58893257 -.00000172  00000-0  00000+0 0  9990
2 32018   0.0390   9.5840 0000303  26.5822 264.6120  1.00272181 42655
INTELSAT 11 (IS-11)     
1 32253U 07044B   19085.45572337 -.00000289  00000-0  00000+0 0  9998
2 32253   0.0315 268.3732 0001662 121.7736 274.5180  1.00271177 42053
HORIZONS 2              
1 32388U 07063B   19085.09424372 -.00000203  00000-0  00000+0 0  9999
2 32388   0.0173 258.0621 0003081 123.8995 280.0463  1.00270327 41404
DIRECTV 11              
1 32729U 08013A   19085.22130920 -.00000147  00000-0  00000+0 0  9999
2 32729   0.0094  51.1341 0000310 336.6229 136.0803  1.00271364 40467
GALAXY 18 (G-18)        
1 32951U 08024A   19085.15264271  .00000004  00000-0  00000+0 0  9998
2 32951   0.0224 257.9944 0003076 122.3088  94.9378  1.00275774 39612
INTELSAT 25 (IS-25)     
1 33153U 08034A   19085.81696718 -.00000245  00000-0  00000+0 0  9990
2 33153   0.0101 191.0242 0001996 146.8391 108.6835  1.00271550 39177
GALAXY 19 (G-19)        
1 33376U 08045A   19084.65509866 -.00000161  00000-0  00000+0 0  9994
2 33376   0.0218 256.1656 0003177 116.0702 309.4001  1.00272922 38352
SIRIUS FM-5             
1 35493U 09034A   19085.59059005 -.00000221  00000-0  00000+0 0  9991
2 35493   0.0295 275.2008 0001174 106.0561 288.9252  1.00271013 35502
INTELSAT 14 (IS-14)     
1 36097U 09064A   19085.85983330 -.00000294  00000-0  00000+0 0  9991
2 36097   0.0088 168.8667 0002546 204.7107  74.9541  1.00272620 34235
INTELSAT 15 (IS-15)     
1 36106U 09067A   19084.90698642 -.00000206  00000-0  00000-0 0  9993
2 36106   0.0176 259.5982 0002314 114.9565 220.1627  1.00270098 14836
DIRECTV 12              
1 36131U 09075A   19085.48995137 -.00000124  00000-0  00000+0 0  9991
2 36131   0.0230 298.9999 0000274  76.9101 241.2851  1.00272479 33914
INTELSAT 16 (IS-16)     
1 36397U 10006A   19085.44909341 -.00000266  00000-0  00000+0 0  9996
2 36397   0.0127 244.4771 0002093 137.7097 246.8758  1.00272096 33268
XM-5                    
1 37185U 10053A   19085.16014499 -.00000226  00000-0  00000+0 0  9990
2 37185   0.0192 189.9552 0000063 134.9052 190.8897  1.00268761 30972
INTELSAT 17 (IS-17)     
1 37238U 10065B   19085.53452260 -.00000023  00000-0  00000+0 0  9990
2 37238   0.0135 187.9617 0002702 188.3026  65.8384  1.00273038 30452
INTELSAT NEW DAWN       
1 37392U 11016A   19085.14292065  .00000135  00000-0  00000+0 0  9993
2 37392   0.0267 230.8872 0000995 107.9521 288.6818  1.00272506 29048
INTELSAT 18 (IS-18)     
1 37834U 11056A   19085.85914316  .00000032  00000-0  00000+0 0  9992
2 37834   0.0192 172.8746 0002818 225.7280 274.6708  1.00273627 27381
INTELSAT 22 (IS-22)     
1 38098U 12011A   19084.89910463 -.00000080  00000-0  00000-0 0  9994
2 38098   0.0098 207.9918 0002765 163.0860 207.7499  1.00272352 25363
INTELSAT 19 (IS-19)     
1 38356U 12030A   19085.78451543 -.00000077  00000-0  00000+0 0  9995
2 38356   0.0136 255.9221 0003122 119.6446 256.7657  1.00270743 25045
INTELSAT 20 (IS-20)     
1 38740U 12043A   19085.87339546 -.00000045  00000-0  00000+0 0  9999
2 38740   0.0167 148.5641 0001945  37.1468  21.2196  1.00271862 24368
INTELSAT 21 (IS-21)     
1 38749U 12045A   19085.85742059 -.00000305  00000-0  00000+0 0  9994
2 38749   0.0180 182.0099 0002190 198.1583  54.4878  1.00271590 24173
INTELSAT 23 (IS-23)     
1 38867U 12057A   19085.41785841 -.00000306  00000-0  00000+0 0  9997
2 38867   0.0136 135.0587 0001888 246.4883 259.4203  1.00270913 23635
SIRIUS FM-6             
1 39360U 13058A   19085.24474571 -.00000038  00000-0  00000+0 0  9996
2 39360   0.0162 144.9440 0001181  49.9376 320.4734  1.00271483 19871
INTELSAT 30 (IS-30)     
1 40271U 14062A   19085.51713742 -.00000172  00000-0  00000+0 0  9990
2 40271   0.0176 269.3272 0001759  66.9245 298.5222  1.00271877 16296
INTELSAT 34 (IS-34)     
1 40874U 15039A   19085.74037407 -.00000306  00000-0  00000+0 0  9995
2 40874   0.0192 180.1863 0000487   9.4101 205.3322  1.00268079 13204
INTELSAT 29E (IS-29E)   
1 41308U 16004A   19085.85758419 -.00000303  00000-0  00000+0 0  9993
2 41308   0.0282 238.8254 0001819 140.4366  63.4484  1.00271023 11697
INTELSAT 31 (IS-31)     
1 41581U 16035A   19085.30172885 -.00000172  00000-0  00000+0 0  9991
2 41581   0.0210 233.8982 0002332 329.4211 353.6825  1.00270963 10226
INTELSAT 36 (IS-36)     
1 41747U 16053A   19085.47796851 -.00000045  00000-0  00000+0 0  9997
2 41747   0.0104 181.3051 0000838 206.3950  36.4906  1.00270079  9499
INTELSAT 33E (IS-33E)   
1 41748U 16053B   19085.81299649  .00000028  00000-0  00000+0 0  9999
2 41748   0.0084 191.5111 0001950 200.7091 144.4223  1.00272385  9750
INTELSAT 32E (IS-32E)   
1 41945U 17007B   19085.45563611 -.00000290  00000-0  00000+0 0  9993
2 41945   0.0185 173.7329 0000020 340.5442 150.1624  1.00270935  7772
INTELSAT 35E (IS-35E)   
1 42818U 17041A   19085.46993829 -.00000259  00000-0  00000+0 0  9995
2 42818   0.0189 192.4737 0002074 187.8315 297.9777  1.00272310  6361
INTELSAT 37E (IS-37E)   
1 42950U 17059A   19085.17063315 -.00000162  00000-0  00000+0 0  9990
2 42950   0.0171 210.1232 0002329 177.2937 199.3094  1.00272678  5579
AZERSPACE 2 (IS-38)     
1 43632U 18074A   19085.76043831  .00000116  00000-0  00000+0 0  9990
2 43632   0.0126 150.6334 0002481 297.0044  54.9957  1.00271623  2049
HORIZONS 3E             
1 43633U 18074B   19084.90257604 -.00000052  00000-0  00000+0 0  9991
2 43633   0.0376 345.9775 0000160 104.7574 226.2215  1.00271798  1873
